{
  "type": "FeatureCollection",
  "features": [
    {
      "type": "Feature",
      "properties": {
        "norad_id": 66632,
        "name": "STARLINK-35973",
        "group": "last-30-days",
        "lat": 13.146546383026994,
        "lon": -146.19623562229452,
        "alt_km": 372.6367384181667,
        "timestamp": "2025-12-09T07:41:31.973648+00:00",
        "meta_object_name": "STARLINK-35973",
        "meta_object_id": "2025-271R",
        "meta_epoch": "2025-12-08T22:00:03.000096",
        "meta_mean_motion": 15.66606994,
        "meta_eccentricity": 0.00010208,
        "meta_inclination": 53.1592,
        "meta_ra_of_asc_node": 205.6978,
        "meta_arg_of_pericenter": 107.3693,
        "meta_mean_anomaly": 151.8488,
        "meta_ephemeris_type": 0,
        "meta_classification_type": "U",
        "meta_norad_cat_id": 66632,
        "meta_element_set_no": 999,
        "meta_rev_at_epoch": 357,
        "meta_bstar": -0.02124259,
        "meta_mean_motion_dot": -0.01996415,
        "meta_mean_motion_ddot": 0,
        "tle_line1": "1 66632U 25271R   25342.91670139 -.01996415  00000+0 -21243-1 0  9991",
        "tle_line2": "2 66632  53.1592 205.6978 0001020 107.3693 151.8488 15.66606994  3571"
      },
      "geometry": {
        "type": "Point",
        "coordinates": [
          -146.19623562229452,
          13.146546383026994
        ]
      }
    },
    {
      "type": "Feature",
      "properties": {
        "norad_id": 66633,
        "name": "STARLINK-35948",
        "group": "last-30-days",
        "lat": 14.655149642339676,
        "lon": -144.97931102249245,
        "alt_km": 372.40849793233247,
        "timestamp": "2025-12-09T07:41:31.973658+00:00",
        "meta_object_name": "STARLINK-35948",
        "meta_object_id": "2025-271S",
        "meta_epoch": "2025-12-08T22:00:03.000096",
        "meta_mean_motion": 15.66605627,
        "meta_eccentricity": 9.398e-05,
        "meta_inclination": 53.1591,
        "meta_ra_of_asc_node": 205.693,
        "meta_arg_of_pericenter": 95.1112,
        "meta_mean_anomaly": 166.0247,
        "meta_ephemeris_type": 0,
        "meta_classification_type": "U",
        "meta_norad_cat_id": 66633,
        "meta_element_set_no": 999,
        "meta_rev_at_epoch": 362,
        "meta_bstar": -0.021221124,
        "meta_mean_motion_dot": -0.01994484,
        "meta_mean_motion_ddot": 0,
        "tle_line1": "1 66633U 25271S   25342.91670139 -.01994484  00000+0 -21221-1 0  9992",
        "tle_line2": "2 66633  53.1591 205.6930 0000939  95.1112 166.0247 15.66605627  3626"
      },
      "geometry": {
        "type": "Point",
        "coordinates": [
          -144.97931102249245,
          14.655149642339676
        ]
      }
    },
    {
      "type": "Feature",
      "properties": {
        "norad_id": 66634,
        "name": "STARLINK-35967",
        "group": "last-30-days",
        "lat": 16.157041377822132,
        "lon": -143.74493477881114,
        "alt_km": 372.15163617826875,
        "timestamp": "2025-12-09T07:41:31.973668+00:00",
        "meta_object_name": "STARLINK-35967",
        "meta_object_id": "2025-271T",
        "meta_epoch": "2025-12-08T22:00:03.000096",
        "meta_mean_motion": 15.66606979,
        "meta_eccentricity": 9.409e-05,
        "meta_inclination": 53.1589,
        "meta_ra_of_asc_node": 205.6889,
        "meta_arg_of_pericenter": 94.0252,
        "meta_mean_anomaly": 169.0283,
        "meta_ephemeris_type": 0,
        "meta_classification_type": "U",
        "meta_norad_cat_id": 66634,
        "meta_element_set_no": 999,
        "meta_rev_at_epoch": 356,
        "meta_bstar": -0.021258339,
        "meta_mean_motion_dot": -0.01997657,
        "meta_mean_motion_ddot": 0,
        "tle_line1": "1 66634U 25271T   25342.91670139 -.01997657  00000+0 -21258-1 0  9998",
        "tle_line2": "2 66634  53.1589 205.6889 0000940  94.0252 169.0283 15.66606979  3569"
      },
      "geometry": {
        "type": "Point",
        "coordinates": [
          -143.74493477881114,
          16.157041377822132
        ]
      }
    },
    {
      "type": "Feature",
      "properties": {
        "norad_id": 66635,
        "name": "STARLINK-35955",
        "group": "last-30-days",
        "lat": 17.650567008678422,
        "lon": -142.49295463851155,
        "alt_km": 371.88798325950575,
        "timestamp": "2025-12-09T07:41:31.973680+00:00",
        "meta_object_name": "STARLINK-35955",
        "meta_object_id": "2025-271U",
        "meta_epoch": "2025-12-08T22:00:03.000096",
        "meta_mean_motion": 15.66605512,
        "meta_eccentricity": 0.00010622,
        "meta_inclination": 53.1591,
        "meta_ra_of_asc_node": 205.6846,
        "meta_arg_of_pericenter": 109.8251,
        "meta_mean_anomaly": 155.1448,
        "meta_ephemeris_type": 0,
        "meta_classification_type": "U",
        "meta_norad_cat_id": 66635,
        "meta_element_set_no": 999,
        "meta_rev_at_epoch": 362,
        "meta_bstar": -0.021220536,
        "meta_mean_motion_dot": -0.01994518,
        "meta_mean_motion_ddot": 0,
        "tle_line1": "1 66635U 25271U   25342.91670139 -.01994518  00000+0 -21221-1 0  9992",
        "tle_line2": "2 66635  53.1591 205.6846 0001062 109.8251 155.1448 15.66605512  3624"
      },
      "geometry": {
        "type": "Point",
        "coordinates": [
          -142.49295463851155,
          17.650567008678422
        ]
      }
    },
    {
      "type": "Feature",
      "properties": {
        "norad_id": 66636,
        "name": "STARLINK-35968",
        "group": "last-30-days",
        "lat": 19.137132285924576,
        "lon": -141.21889605093065,
        "alt_km": 371.6318751381841,
        "timestamp": "2025-12-09T07:41:31.973689+00:00",
        "meta_object_name": "STARLINK-35968",
        "meta_object_id": "2025-271V",
        "meta_epoch": "2025-12-08T22:00:03.000096",
        "meta_mean_motion": 15.66605673,
        "meta_eccentricity": 0.00010102,
        "meta_inclination": 53.1592,
        "meta_ra_of_asc_node": 205.6804,
        "meta_arg_of_pericenter": 109.8033,
        "meta_mean_anomaly": 157.0829,
        "meta_ephemeris_type": 0,
        "meta_classification_type": "U",
        "meta_norad_cat_id": 66636,
        "meta_element_set_no": 999,
        "meta_rev_at_epoch": 362,
        "meta_bstar": -0.021222862,
        "meta_mean_motion_dot": -0.01994683,
        "meta_mean_motion_ddot": 0,
        "tle_line1": "1 66636U 25271V   25342.91670139 -.01994683  00000+0 -21223-1 0  9998",
        "tle_line2": "2 66636  53.1592 205.6804 0001010 109.8033 157.0829 15.66605673  3623"
      },
      "geometry": {
        "type": "Point",
        "coordinates": [
          -141.21889605093065,
          19.137132285924576
        ]
      }
    },
    {
      "type": "Feature",
      "properties": {
        "norad_id": 66637,
        "name": "STARLINK-35953",
        "group": "last-30-days",
        "lat": 20.61533119501632,
        "lon": -139.9206339557213,
        "alt_km": 371.32511743320356,
        "timestamp": "2025-12-09T07:41:31.973701+00:00",
        "meta_object_name": "STARLINK-35953",
        "meta_object_id": "2025-271W",
        "meta_epoch": "2025-12-08T22:00:03.000096",
        "meta_mean_motion": 15.66610214,
        "meta_eccentricity": 0.00010191,
        "meta_inclination": 53.1593,
        "meta_ra_of_asc_node": 205.6767,
        "meta_arg_of_pericenter": 104.9655,
        "meta_mean_anomaly": 163.8359,
        "meta_ephemeris_type": 0,
        "meta_classification_type": "U",
        "meta_norad_cat_id": 66637,
        "meta_element_set_no": 999,
        "meta_rev_at_epoch": 362,
        "meta_bstar": -0.021287181,
        "meta_mean_motion_dot": -0.02000328,
        "meta_mean_motion_ddot": 0,
        "tle_line1": "1 66637U 25271W   25342.91670139 -.02000328  00000+0 -21287-1 0  9994",
        "tle_line2": "2 66637  53.1593 205.6767 0001019 104.9655 163.8359 15.66610214  3628"
      },
      "geometry": {
        "type": "Point",
        "coordinates": [
          -139.9206339557213,
          20.61533119501632
        ]
      }
    },
    {
      "type": "Feature",
      "properties": {
        "norad_id": 66638,
        "name": "STARLINK-35972",
        "group": "last-30-days",
        "lat": 22.08258717741434,
        "lon": -138.59783561934304,
        "alt_km": 371.09713892534455,
        "timestamp": "2025-12-09T07:41:31.973711+00:00",
        "meta_object_name": "STARLINK-35972",
        "meta_object_id": "2025-271X",
        "meta_epoch": "2025-12-08T22:00:03.000096",
        "meta_mean_motion": 15.66610029,
        "meta_eccentricity": 0.00010209,
        "meta_inclination": 53.1592,
        "meta_ra_of_asc_node": 205.6729,
        "meta_arg_of_pericenter": 108.278,
        "meta_mean_anomaly": 162.4395,
        "meta_ephemeris_type": 0,
        "meta_classification_type": "U",
        "meta_norad_cat_id": 66638,
        "meta_element_set_no": 999,
        "meta_rev_at_epoch": 362,
        "meta_bstar": -0.021276544,
        "meta_mean_motion_dot": -0.01999438,
        "meta_mean_motion_ddot": 0,
        "tle_line1": "1 66638U 25271X   25342.91670139 -.01999438  00000+0 -21277-1 0  9992",
        "tle_line2": "2 66638  53.1592 205.6729 0001020 108.2780 162.4395 15.66610029  3623"
      },
      "geometry": {
        "type": "Point",
        "coordinates": [
          -138.59783561934304,
          22.08258717741434
        ]
      }
    }
  ]
}